STARLINK-30789          
1 58166U 23166S   24270.79954307 -.00002514  00000+0 -72798-4 0  9993
2 58166  53.1580 156.2740 0001201  85.7776 274.3362 15.30193051 52203
STARLINK-30811          
1 58167U 23166T   24271.10606825  .00002530  00000+0  97537-4 0  9993
2 58167  53.1592 154.6324 0001073  72.0983 288.0135 15.30195970 52104
STARLINK-30812          
1 58168U 23166U   24271.10290261 -.00010379  00000+0 -33857-3 0  9993
2 58168  53.1604 154.6110 0000918  58.6206 301.4884 15.30221282 52104
STARLINK-30771          
1 58169U 23166V   24271.37787616 -.00007868  00000+0 -25408-3 0  9990
2 58169  53.1550 153.4836 0000789  94.6391 265.4700 15.30167174 52293
STARLINK-30764          
1 58170U 23166W   24271.37471173  .00001465  00000+0  61590-4 0  9998
2 58170  53.1571 153.4640 0001022  83.4073 276.7044 15.30191633 52298
STARLINK-30752          
1 58171U 23166X   24271.37154299 -.00005795  00000+0 -18379-3 0  9994
2 58171  53.1587 153.4334 0000841  72.2619 287.8473 15.30184776 52295
COSMOS 2571             
1 58172U 23165C   24271.60747596  .00000249  00000+0  21310-3 0  9994
2 58172  67.1608  15.1894 0003979 330.8787  29.2078 14.02020002 46655
STARLINK-30753          
1 58175U 23167A   24271.35652780 -.00000060  00000+0  10649-4 0  9997
2 58175  43.0002 136.4704 0000894 275.3923  84.6817 15.02528246 51481
STARLINK-30824          
1 58176U 23167B   24271.62133076  .00000256  00000+0  33996-4 0  9996
2 58176  43.0011 135.0154 0000851 273.5431  86.5314 15.02531096 51528
STARLINK-30791          
1 58177U 23167C   24271.63797563  .00000614  00000+0  60507-4 0  9991
2 58177  43.0012 135.1231 0000911 260.5197  99.5542 15.02531746 51528
STARLINK-30810          
1 58178U 23167D   24271.61478099  .00001404  00000+0  11901-3 0  9991
2 58178  43.0010 135.8154 0001326 272.7136  87.3554 15.02535552 51513
STARLINK-30819          
1 58179U 23167E   24271.34553712 -.00000130  00000+0  54304-5 0  9990
2 58179  43.0003 137.2338 0001452 275.4783  84.5894 15.02539304 51474
STARLINK-30806          
1 58180U 23167F   24271.60811969 -.00001338  00000+0 -83967-4 0  9990
2 58180  43.0021 135.7633 0001606 260.3955  99.6706 15.02545403 51513
STARLINK-30821          
1 58181U 23167G   24271.03634223  .00000947  00000+0  85155-4 0  9998
2 58181  43.0019 138.3499 0000619 260.0964  99.9809 15.02530744 51430
STARLINK-30778          
1 58182U 23167H   24271.03301191 -.00000781  00000+0 -42730-4 0  9994
2 58182  43.0015 138.3243 0001070 274.6521  85.4199 15.02535918 51436
STARLINK-30809          
1 58183U 23167J   24270.94001453  .00000804  00000+0  74616-4 0  9994
2 58183  43.0022 139.3492 0001336 265.6769  94.3920 15.02533514 51364
STARLINK-30801          
1 58184U 23167K   24271.60146481  .00001906  00000+0  15615-3 0  9997
2 58184  43.0010 135.7132 0001381 270.4713  89.5971 15.02534164 51517
STARLINK-30793          
1 58185U 23167L   24271.62799378  .00004555  00000+0  35198-3 0  9990
2 58185  43.0029 135.0480 0001456 263.4444  96.6233 15.02541354 51523
STARLINK-30755          
1 58186U 23167M   24271.32667929 -.00000340  00000+0 -10073-4 0  9990
2 58186  42.9997 137.0937 0001580 266.5726  93.4936 15.02528816 51477
STARLINK-30760          
1 58187U 23167N   24271.35874246  .00000847  00000+0  77767-4 0  9999
2 58187  43.0022 136.4690 0000568 281.0934  78.9845 15.02540278 51480
STARLINK-30826          
1 58188U 23167P   24271.32556062 -.00001886  00000+0 -12457-3 0  9990
2 58188  43.0000 137.0818 0000869 297.6247  62.4507 15.02535679 51471
STARLINK-30796          
1 58189U 23167Q   24271.32889630 -.00000421  00000+0 -16087-4 0  9999
2 58189  42.9978 137.1086 0001338 264.7510  95.3179 15.02530362 51476
STARLINK-30820          
1 58190U 23167R   24271.33222324  .00000711  00000+0  67689-4 0  9997
2 58190  42.9996 137.1296 0000840 278.4487  81.6260 15.02531475 51478
STARLINK-30785          
1 58191U 23167S   24271.05299081  .00000426  00000+0  46581-4 0  9992
2 58191  43.0023 138.4757 0001240 271.7834  88.2867 15.02532811 51432
STARLINK-30807          
1 58192U 23167T   24270.98984212  .00000689  00000+0  66089-4 0  9997
2 58192  43.0013 138.8646 0001053 281.7151  78.3573 15.02533877 51424
STARLINK-30822          
1 58193U 23167U   24270.98318402  .00005523  00000+0  42359-3 0  9995
2 58193  43.0007 138.8096 0001437 266.8806  93.1872 15.02535283 51424
STARLINK-30830          
1 58194U 23167V   24270.91225527  .00000190  00000+0  29178-4 0  9994
2 58194  43.0029 139.1155 0001787 271.3651  88.6986 15.02543616 51419
STARLINK-30827          
1 58195U 23167W   24271.64130357  .00000558  00000+0  56396-4 0  9992
2 58195  43.0033 135.1488 0001370 256.0991 103.9699 15.02534405 51525
STARLINK-30798          
1 58196U 23167X   24271.61811178  .00001110  00000+0  97253-4 0  9999
2 58196  43.0004 135.8301 0001312 261.3076  98.7618 15.02534944 51513
STARLINK-30762          
1 58197U 23167Y   24270.97985546  .00000760  00000+0  71334-4 0  9991
2 58197  43.0007 138.7842 0001226 260.3772  99.6932 15.02530132 51429
TIANHUI 5A              
1 58199U 23168A   24271.49814898  .00001424  00000+0  16277-3 0  9995
2 58199  97.8221 276.9012 0001593  91.3865 268.7534 14.87577281 49288
TIANHUI 5B              
1 58201U 23168C   24271.49815011  .00001375  00000+0  15738-3 0  9993
2 58201  97.8220 276.9054 0002144  97.2446 262.9014 14.87577098 49285
TJS-10                  
1 58204U 23169A   24271.62798181 -.00000013  00000+0  00000+0 0  9991
2 58204   0.9149  87.7771 0004821 140.4806 177.6154  1.00273599  3245
STARLINK-30800          
1 58206U 23170A   24271.17124672 -.00000201  00000+0  15571-6 0  9998
2 58206  43.0039 187.9967 0001255 255.4761 104.5942 15.02526621 50776
STARLINK-30845          
1 58207U 23170B   24271.46700607  .00001006  00000+0  89567-4 0  9996
2 58207  43.0052 185.9379 0001681 280.4924  79.5729 15.02536334 50821
STARLINK-30841          
1 58208U 23170C   24271.04828947 -.00000915  00000+0 -52673-4 0  9997
2 58208  43.0018 188.7772 0001394 267.1125  92.9557 15.02522797 50756
STARLINK-30839          
1 58209U 23170D   24271.49365140 -.00000098  00000+0  77971-5 0  9998
2 58209  43.0031 186.1143 0000938 284.3116  75.7622 15.02527501 50828
STARLINK-30846          
1 58210U 23170E   24271.49697929  .00001001  00000+0  89176-4 0  9996
2 58210  43.0018 186.1407 0000879 287.1677  72.9069 15.02530038 50828
STARLINK-30838          
1 58211U 23170F   24271.48698638 -.00000055  00000+0  10983-4 0  9993
2 58211  43.0068 186.0674 0001207 266.2893  93.7811 15.02530554 50822
STARLINK-30837          
1 58212U 23170G   24271.16791191 -.00001028  00000+0 -61048-4 0  9997
2 58212  43.0026 187.9519 0001240 279.2977  80.7726 15.02535844 50771
STARLINK-30813          
1 58213U 23170H   24271.48366344 -.00001187  00000+0 -72832-4 0  9990
2 58213  43.0087 186.0427 0001131 273.4746  86.5968 15.02525630 50826
STARLINK-30805          
1 58214U 23170J   24271.48033469 -.00000628  00000+0 -31439-4 0  9997
2 58214  43.0038 186.0156 0001581 272.6899  87.3762 15.02523709 50827
STARLINK-30851          
1 58215U 23170K   24271.47699355  .00000109  00000+0  23125-4 0  9994
2 58215  43.0043 185.9884 0001239 288.4506  71.6202 15.02533439 50826
STARLINK-30786          
1 58216U 23170L   24271.58334491  .00183663  00000+0  33696-2 0  9993
2 58216  43.0036  95.9759 0014787 299.5837 101.2265 15.47767671  5973
STARLINK-30818          
1 58217U 23170M   24271.47033787 -.00001132  00000+0 -68749-4 0  9997
2 58217  42.9981 185.9439 0001745 270.6931  89.3711 15.02526585 50847
STARLINK-30794          
1 58218U 23170N   24271.49031017 -.00000720  00000+0 -38216-4 0  9992
2 58218  43.0029 186.0691 0002388 260.2522  99.8051 15.02530545 50822
STARLINK-30835          
1 58219U 23170P   24271.46367824  .00000354  00000+0  41253-4 0  9994
2 58219  42.9994 185.8893 0000976 293.7397  66.3343 15.02532124 50823
STARLINK-30792          
1 58220U 23170Q   24271.12793981 -.00005144  00000+0 -36570-3 0  9995
2 58220  43.0029 187.6688 0001290 267.9407  92.1288 15.02568643 50777
STARLINK-30836          
1 58221U 23170R   24271.45702080 -.00000128  00000+0  55694-5 0  9998
2 58221  43.0038 185.8367 0000752 273.3653  86.7104 15.02528510 50829
STARLINK-30855          
1 58222U 23170S   24271.17790345  .00000821  00000+0  75843-4 0  9995
2 58222  43.0035 188.0268 0001941 265.0005  95.0616 15.02528171 50770
STARLINK-30840          
1 58223U 23170T   24271.10809010  .00000490  00000+0  51337-4 0  9993
2 58223  43.0020 188.3639 0000824 263.4771  96.5977 15.02538027 50767
STARLINK-30875          
1 58224U 23170U   24271.47366828 -.00001199  00000+0 -73691-4 0  9995
2 58224  43.0017 185.9504 0001269 252.7382 107.3321 15.02529302 50783
STARLINK-30872          
1 58225U 23170V   24270.98458709  .00014106  00000+0  54847-3 0  9992
2 58225  43.0015 154.3603 0001507 288.1120  71.9567 15.25885243 49982
STARLINK-30865          
1 58226U 23170W   24271.41893486  .00000144  00000+0  25711-4 0  9993
2 58226  43.0006 175.3630 0001316 276.5779  83.4913 15.02534369 50941
STARLINK-30874          
1 58227U 23170X   24271.45380262  .00002762  00000+0  21953-3 0  9992
2 58227  43.0019 186.6590 0001516 270.5034  89.5634 15.02527742 50816
STARLINK-30871          
1 58228U 23170Y   24271.45047629 -.00000307  00000+0 -76670-5 0  9993
2 58228  43.0018 186.6353 0001604 288.2450  71.8217 15.02526061 50813
STARLINK-30861          
1 58230U 23171A   24271.44850229  .00000320  00000+0  38724-4 0  9994
2 58230  43.0025 276.3756 0001068 277.4462  82.6259 15.02533120 50264
STARLINK-30867          
1 58231U 23171B   24271.45182589  .00000550  00000+0  55759-4 0  9995
2 58231  43.0015 276.3997 0001337 268.3150  91.7539 15.02533272 50263
STARLINK-30880          
1 58232U 23171C   24271.45516885 -.00003041  00000+0 -21027-3 0  9996
2 58232  43.0030 276.4230 0001531 280.9838  79.0832 15.02514913 50223
